{"type": "FeatureCollection", "features": [ {"type": "Feature", "properties": {"norad_id": 28659, "name": "DIRECTV 8", "group": "intelsat", "lat": -0.03601931694200689, "lon": -79.59354045600807, "alt_km": 35774.309693963194, "timestamp": "2025-12-19T20:42:59.748502+00:00", "meta": {"OBJECT_NAME": "DIRECTV 8", "OBJECT_ID": "2005-019A", "EPOCH": "2025-12-19T05:51:01.874880", "MEAN_MOTION": 1.00271096, "ECCENTRICITY": 0.00028222, "INCLINATION": 0.0161, "RA_OF_ASC_NODE": 332.5718, "ARG_OF_PERICENTER": 304.9799, "MEAN_ANOMALY": 139.2632, "EPHEMERIS_TYPE": 0, "CLASSIFICATION_TYPE": "U", "NORAD_CAT_ID": 28659, "ELEMENT_SET_NO": 999, "REV_AT_EPOCH": 7526, "BSTAR": 0, "MEAN_MOTION_DOT": 2.6e-07, "MEAN_MOTION_DDOT": 0}, "tle": {"line1": "1 28659U 05019A   25353.24377170  .00000026  00000+0  00000+0 0  9990", "line2": "2 28659   0.0161 332.5718 0002822 304.9799 139.2632  1.00271096 75266"}}, "geometry": {"type": "Point", "coordinates": [-79.59354045600807, -0.03601931694200689]}}, {"type": "Feature", "properties": {"norad_id": 28702, "name": "GALAXY 28 (G-28)", "group": "intelsat", "lat": -2.180502578003262, "lon": -49.25347162199498, "alt_km": 35776.691515764905, "timestamp": "2025-12-19T20:42:59.748513+00:00", "meta": {"OBJECT_NAME": "GALAXY 28 (G-28)", "OBJECT_ID": "2005-022A", "EPOCH": "2025-12-19T06:09:01.433376", "MEAN_MOTION": 1.00271002, "ECCENTRICITY": 0.0002923, "INCLINATION": 2.8362, "RA_OF_ASC_NODE": 81.2076, "ARG_OF_PERICENTER": 192.9294, "MEAN_ANOMALY": 177.5399, "EPHEMERIS_TYPE": 0, "CLASSIFICATION_TYPE": "U", "NORAD_CAT_ID": 28702, "ELEMENT_SET_NO": 999, "REV_AT_EPOCH": 5017, "BSTAR": 0, "MEAN_MOTION_DOT": -1.65e-06, "MEAN_MOTION_DDOT": 0}, "tle": {"line1": "1 28702U 05022A   25353.25626659 -.00000165  00000+0  00000+0 0  9998", "line2": "2 28702   2.8362  81.2076 0002923 192.9294 177.5399  1.00271002 50175"}}, "geometry": {"type": "Point", "coordinates": [-49.25347162199498, -2.180502578003262]}}, {"type": "Feature", "properties": {"norad_id": 29236, "name": "GALAXY 16 (G-16)", "group": "intelsat", "lat": -0.00392909542554323, "lon": -59.542501787752165, "alt_km": 35777.67649720229, "timestamp": "2025-12-19T20:42:59.748526+00:00", "meta": {"OBJECT_NAME": "GALAXY 16 (G-16)", "OBJECT_ID": "2006-023A", "EPOCH": "2025-12-19T06:00:52.934688", "MEAN_MOTION": 1.00271418, "ECCENTRICITY": 0.00024679, "INCLINATION": 0.0158, "RA_OF_ASC_NODE": 245.6603, "ARG_OF_PERICENTER": 19.3643, "MEAN_ANOMALY": 174.2954, "EPHEMERIS_TYPE": 0, "CLASSIFICATION_TYPE": "U", "NORAD_CAT_ID": 29236, "ELEMENT_SET_NO": 999, "REV_AT_EPOCH": 7116, "BSTAR": 0, "MEAN_MOTION_DOT": -1.02e-06, "MEAN_MOTION_DDOT": 0}, "tle": {"line1": "1 29236U 06023A   25353.25061267 -.00000102  00000+0  00000+0 0  9992", "line2": "2 29236   0.0158 245.6603 0002467  19.3643 174.2954  1.00271418 71160"}}, "geometry": {"type": "Point", "coordinates": [-59.542501787752165, -0.00392909542554323]}}, {"type": "Feature", "properties": {"norad_id": 29494, "name": "DIRECTV 9S", "group": "intelsat", "lat": -1.1494507609499687, "lon": -61.7655010257992, "alt_km": 35775.39759226153, "timestamp": "2025-12-19T20:42:59.748539+00:00", "meta": {"OBJECT_NAME": "DIRECTV 9S", "OBJECT_ID": "2006-043A", "EPOCH": "2025-12-19T05:59:53.441376", "MEAN_MOTION": 1.00271776, "ECCENTRICITY": 0.00028139, "INCLINATION": 1.9561, "RA_OF_ASC_NODE": 83.1445, "ARG_OF_PERICENTER": 190.6661, "MEAN_ANOMALY": 163.0522, "EPHEMERIS_TYPE": 0, "CLASSIFICATION_TYPE": "U", "NORAD_CAT_ID": 29494, "ELEMENT_SET_NO": 999, "REV_AT_EPOCH": 4957, "BSTAR": 0, "MEAN_MOTION_DOT": -9e-07, "MEAN_MOTION_DDOT": 0}, "tle": {"line1": "1 29494U 06043A   25353.24992409 -.00000090  00000+0  00000+0 0  9996", "line2": "2 29494   1.9561  83.1445 0002813 190.6661 163.0522  1.00271776 49575"}}, "geometry": {"type": "Point", "coordinates": [-61.7655010257992, -1.1494507609499687]}}, {"type": "Feature", "properties": {"norad_id": 31307, "name": "GALAXY 17 (G-17)", "group": "intelsat", "lat": -2.011359410820355, "lon": -45.48634897220504, "alt_km": 35775.51426395293, "timestamp": "2025-12-19T20:42:59.748551+00:00", "meta": {"OBJECT_NAME": "GALAXY 17 (G-17)", "OBJECT_ID": "2007-016B", "EPOCH": "2025-12-19T06:12:39.425760", "MEAN_MOTION": 1.00272358, "ECCENTRICITY": 0.00054453, "INCLINATION": 2.5157, "RA_OF_ASC_NODE": 82.2133, "ARG_OF_PERICENTER": 169.8109, "MEAN_ANOMALY": 204.2848, "EPHEMERIS_TYPE": 0, "CLASSIFICATION_TYPE": "U", "NORAD_CAT_ID": 31307, "ELEMENT_SET_NO": 999, "REV_AT_EPOCH": 6800, "BSTAR": 0, "MEAN_MOTION_DOT": -1.84e-06, "MEAN_MOTION_DDOT": 0}, "tle": {"line1": "1 31307U 07016B   25353.25878965 -.00000184  00000+0  00000+0 0  9998", "line2": "2 31307   2.5157  82.2133 0005445 169.8109 204.2848  1.00272358 68007"}}, "geometry": {"type": "Point", "coordinates": [-45.48634897220504, -2.011359410820355]}}, {"type": "Feature", "properties": {"norad_id": 31862, "name": "DIRECTV 10", "group": "intelsat", "lat": -0.022946168137762978, "lon": -63.36255525226122, "alt_km": 35786.55511910161, "timestamp": "2025-12-19T20:42:59.748563+00:00", "meta": {"OBJECT_NAME": "DIRECTV 10", "OBJECT_ID": "2007-032A", "EPOCH": "2025-12-18T23:04:43.398624", "MEAN_MOTION": 1.00270613, "ECCENTRICITY": 2.114e-05, "INCLINATION": 0.0079, "RA_OF_ASC_NODE": 54.2864, "ARG_OF_PERICENTER": 143.5711, "MEAN_ANOMALY": 133.3348, "EPHEMERIS_TYPE": 0, "CLASSIFICATION_TYPE": "U", "NORAD_CAT_ID": 31862, "ELEMENT_SET_NO": 999, "REV_AT_EPOCH": 4378, "BSTAR": 0, "MEAN_MOTION_DOT": -7.8e-07, "MEAN_MOTION_DDOT": 0}, "tle": {"line1": "1 31862U 07032A   25352.96161341 -.00000078  00000+0  00000+0 0  9994", "line2": "2 31862   0.0079  54.2864 0000211 143.5711 133.3348  1.00270613 43780"}}, "geometry": {"type": "Point", "coordinates": [-63.36255525226122, -0.022946168137762978]}}, {"type": "Feature", "properties": {"norad_id": 32253, "name": "INTELSAT 11 (IS-11)", "group": "intelsat", "lat": 1.38926784608261, "lon": -126.19335798911361, "alt_km": 36096.209927016884, "timestamp": "2025-12-19T20:42:59.748574+00:00", "meta": {"OBJECT_NAME": "INTELSAT 11 (IS-11)", "OBJECT_ID": "2007-044B", "EPOCH": "2025-12-19T05:38:33.071136", "MEAN_MOTION": 0.99051799, "ECCENTRICITY": 0.00085519, "INCLINATION": 3.0962, "RA_OF_ASC_NODE": 80.9054, "ARG_OF_PERICENTER": 168.4719, "MEAN_ANOMALY": 120.4553, "EPHEMERIS_TYPE": 0, "CLASSIFICATION_TYPE": "U", "NORAD_CAT_ID": 32253, "ELEMENT_SET_NO": 999, "REV_AT_EPOCH": 6666, "BSTAR": 0, "MEAN_MOTION_DOT": -2.6e-07, "MEAN_MOTION_DDOT": 0}, "tle": {"line1": "1 32253U 07044B   25353.23510499 -.00000026  00000+0  00000+0 0  9998", "line2": "2 32253   3.0962  80.9054 0008551 168.4719 120.4553  0.99051799 66661"}}, "geometry": {"type": "Point", "coordinates": [-126.19335798911361, 1.38926784608261]}}, {"type": "Feature", "properties": {"norad_id": 32388, "name": "HORIZONS-2", "group": "intelsat", "lat": -1.9173343085833596, "lon": -34.31062982951112, "alt_km": 35773.82075966137, "timestamp": "2025-12-19T20:42:59.748587+00:00", "meta": {"OBJECT_NAME": "HORIZONS-2", "OBJECT_ID": "2007-063B", "EPOCH": "2025-12-19T06:15:31.308192", "MEAN_MOTION": 1.002722, "ECCENTRICITY": 0.00045723, "INCLINATION": 2.1377, "RA_OF_ASC_NODE": 82.8922, "ARG_OF_PERICENTER": 192.8793, "MEAN_ANOMALY": 192.437, "EPHEMERIS_TYPE": 0, "CLASSIFICATION_TYPE": "U", "NORAD_CAT_ID": 32388, "ELEMENT_SET_NO": 999, "REV_AT_EPOCH": 6601, "BSTAR": 0, "MEAN_MOTION_DOT": -2.31e-06, "MEAN_MOTION_DDOT": 0}, "tle": {"line1": "1 32388U 07063B   25353.26077903 -.00000231  00000+0  00000+0 0  9997", "line2": "2 32388   2.1377  82.8922 0004572 192.8793 192.4370  1.00272200 66017"}}, "geometry": {"type": "Point", "coordinates": [-34.31062982951112, -1.9173343085833596]}}, {"type": "Feature", "properties": {"norad_id": 32729, "name": "DIRECTV 11", "group": "intelsat", "lat": -0.005162710728736137, "lon": -59.7321054963145, "alt_km": 35787.45023299029, "timestamp": "2025-12-19T20:42:59.748599+00:00", "meta": {"OBJECT_NAME": "DIRECTV 11", "OBJECT_ID": "2008-013A", "EPOCH": "2025-12-18T14:32:04.553664", "MEAN_MOTION": 1.00272086, "ECCENTRICITY": 5.406e-05, "INCLINATION": 0.0315, "RA_OF_ASC_NODE": 212.3595, "ARG_OF_PERICENTER": 318.9842, "MEAN_ANOMALY": 34.9588, "EPHEMERIS_TYPE": 0, "CLASSIFICATION_TYPE": "U", "NORAD_CAT_ID": 32729, "ELEMENT_SET_NO": 999, "REV_AT_EPOCH": 4378, "BSTAR": 0, "MEAN_MOTION_DOT": -1.01e-06, "MEAN_MOTION_DDOT": 0}, "tle": {"line1": "1 32729U 08013A   25352.60560826 -.00000101  00000+0  00000+0 0  9996", "line2": "2 32729   0.0315 212.3595 0000540 318.9842  34.9588  1.00272086 43780"}}, "geometry": {"type": "Point", "coordinates": [-59.7321054963145, -0.005162710728736137]}}, {"type": "Feature", "properties": {"norad_id": 32951, "name": "GALAXY 18 (G-18)", "group": "intelsat", "lat": -0.03834636439456623, "lon": -83.5617784077973, "alt_km": 35774.42202368225, "timestamp": "2025-12-19T20:42:59.748611+00:00", "meta": {"OBJECT_NAME": "GALAXY 18 (G-18)", "OBJECT_ID": "2008-024A", "EPOCH": "2025-12-19T05:47:44.988288", "MEAN_MOTION": 1.00270818, "ECCENTRICITY": 0.00028156, "INCLINATION": 0.0162, "RA_OF_ASC_NODE": 31.3027, "ARG_OF_PERICENTER": 240.9441, "MEAN_ANOMALY": 139.777, "EPHEMERIS_TYPE": 0, "CLASSIFICATION_TYPE": "U", "NORAD_CAT_ID": 32951, "ELEMENT_SET_NO": 999, "REV_AT_EPOCH": 4404, "BSTAR": 0, "MEAN_MOTION_DOT": 5e-07, "MEAN_MOTION_DDOT": 0}, "tle": {"line1": "1 32951U 08024A   25353.24149292  .00000050  00000+0  00000+0 0  9998", "line2": "2 32951   0.0162  31.3027 0002815 240.9441 139.7770  1.00270818 44040"}}, "geometry": {"type": "Point", "coordinates": [-83.5617784077973, -0.03834636439456623]}}]}